SL-12 R/B(2)            
1 15772U 85042D   26199.34583872  .00000070  00000+0  52872-4 0  9992
2 15772  71.1068 171.6849 0037370 281.5712 247.4621 14.22011301132961
SL-14 R/B               
1 15945U 85069B   26199.67154042  .00000185  00000+0  18065-4 0  9995
2 15945  82.5258 261.7568 0020206 116.5352 243.7939 14.86536436192290
SL-16 R/B               
1 16182U 85097B   26199.57022676  .00000238  00000+0  14316-3 0  9999
2 16182  71.0005 225.0070 0005793  44.7326 126.0378 14.16614396105766
SL-14 R/B               
1 16496U 86006B   26199.81394344  .00000229  00000+0  21403-4 0  9995
2 16496  82.5284 136.3528 0075776 196.7490 163.1225 14.86969767168696
COSMOS 1743             
1 16719U 86034A   26199.72771019  .00035738  00000+0  29797-3 0  9998
2 16719  82.5274 295.1252 0005533 165.7831 194.3587 15.69887978200734
SL-14 R/B               
1 16792U 86046B   26199.80781868  .00000246  00000+0  25403-4 0  9991
2 16792  82.4840 316.2976 0023858 151.3732 208.8800 14.85692119145872
SL-14 R/B               
1 16882U 86055B   26199.88637653  .00000214  00000+0  21871-4 0  9991
2 16882  82.5206   3.3254 0017362 256.9911 271.4571 14.85741658138849
AJISAI (EGS)            
1 16908U 86061A   26199.84399562 -.00000096  00000+0  73063-5 0  9997
2 16908  50.0103  50.0516 0011080 261.2164 111.3542 12.44516681484331
SL-14 R/B               
1 17567U 87024B   26199.79355488  .00000221  00000+0  22291-4 0  9997
2 17567  82.5302 329.5422 0018156 181.7018 178.4140 14.86233172107608
COSMOS 1833             
1 17589U 87027A   26199.89263713  .00000018  00000+0  35205-4 0  9997
2 17589  70.9213  50.2287 0024515   2.7728 357.3525 14.13067407 28857
SL-16 R/B               
1 17590U 87027B   26199.83779980  .00000207  00000+0  12639-3 0  9996
2 17590  71.0036   0.1294 0007188 277.9978  82.0330 14.17174860 33922
SL-14 R/B               
1 17912U 87038B   26199.65396277  .00000196  00000+0  19839-4 0  9997
2 17912  82.5015 173.4323 0020879  91.6436 268.7172 14.85462633 98676
COSMOS 1844             
1 17973U 87041A   26199.78683144 -.00000015  00000+0  17161-4 0  9991
2 17973  70.8999 117.6545 0031087 190.1174 169.9326 14.14581281 22120
SL-14 R/B               
1 18153U 87055B   26199.80974529  .00000174  00000+0  17257-4 0  9991
2 18153  82.4969 225.4173 0019213 302.3533  57.5823 14.85728161 89401
COSMOS 1867             
1 18187U 87060A   26199.71033207 -.00000050  00000+0  19030-4 0  9998
2 18187  65.0117 299.7759 0017240 281.9861  77.9291 14.31518720 38697
SL-14 R/B               
1 18749U 88001B   26199.74666404  .00000169  00000+0  16644-4 0  9990
2 18749  82.5117  72.0806 0018441 160.2499 199.9436 14.85627938 61480
COSMOS 1933             
1 18958U 88020A   26199.79303595  .00002059  00000+0  97171-4 0  9991
2 18958  82.5140 121.1348 0005923  98.2773 261.9133 15.18903003 70123
SL-3 R/B                
1 19046U 88032B   26199.88832157  .00002139  00000+0  98667-4 0  9994
2 19046  97.5278 182.9050 0026797 133.4055 226.9418 15.21047399 72043
SL-16 R/B               
1 19120U 88039B   26199.61740654  .00000110  00000+0  74582-4 0  9992
2 19120  71.0142 151.6988 0020430 143.8598 216.3913 14.19631498976963
COSMOS 1953             
1 19210U 88050A   26199.47309549  .00004043  00000+0  13631-3 0  9999
2 19210  82.5068  26.4710 0011183  29.4528 330.7340 15.30362961 57770
SL-8 R/B                
1 19257U 88053B   26199.29413319  .00000103  00000+0  41831-4 0  9991
2 19257  74.0454 231.7163 0019847  16.3577  63.5796 14.38979213995388
COSMOS 1975             
1 19573U 88093A   26199.81855875  .00004066  00000+0  13990-3 0  9997
2 19573  82.5208 345.8729 0012398  71.1955 289.0629 15.29688865 39445
SL-14 R/B               
1 19574U 88093B   26199.73454161  .00000180  00000+0  17863-4 0  9999
2 19574  82.5313 279.0295 0019727 328.1733 149.0758 14.85761246 20478
SL-16 R/B               
1 19650U 88102B   26199.79068095  .00000091  00000+0  69905-4 0  9993
2 19650  70.9973 235.6415 0014098 179.8487 180.2643 14.16166899945452
INTERCOSMOS 24          
1 20261U 89080A   26199.78375185  .00000112  00000+0  29546-4 0  9990
2 20261  82.6054  19.0779 1187013 348.6159   9.0084 12.59692831683305
SL-14 R/B               
1 20262U 89080C   26199.68283365  .00000051  00000+0  14154-4 0  9999
2 20262  82.5930  89.0709 1228826 245.3107 101.5317 12.50578861676522
DELTA 1 R/B             
1 20323U 89089B   26199.80858858  .00000103  00000+0  34049-4 0  9998
2 20323  97.0637  26.3067 0070576  68.8071 292.0649 14.50748924914744
ARIANE 40 R/B           
1 20443U 90005H   26199.73121581  .00000078  00000+0  38102-4 0  9994
2 20443  98.2941 256.3636 0010506 163.6868 196.4661 14.39941618911661
DELTA 2 R/B(1)          
1 20453U 90008B   26199.57360949  .00081373  00000+0  48844-3 0  9993
2 20453  35.5998  24.8567 0057119  48.2970 312.2639 15.74164493946649
COSMOS 2058             
1 20465U 90010A   26199.70091319  .00001845  00000+0  10522-3 0  9994
2 20465  82.4675 278.2742 0008198 235.1988 124.8472 15.12168441962036
SL-14 R/B               
1 20466U 90010B   26199.79847752  .00000184  00000+0  19330-4 0  9996
2 20466  82.5037 144.2591 0018584 224.5176 135.4547 14.83664158947920
